[2778102006fv35]
absolute_magnitude             = 21.800000000000001
albedo                         = 0.14999999999999999
coord_func                     = comet_orbit
minor_planet_number            = 277810
name                           = 2006 FV35
orbit_ArgOfPericenter          = 170.81408
orbit_AscendingNode            = 179.48279
orbit_Eccentricity             = 0.3775077
orbit_Epoch                    = 2460000.5
orbit_Inclination              = 7.10437
orbit_MeanAnomaly              = 173.09344
orbit_MeanMotion               = 0.98349433
orbit_SemiMajorAxis            = 1.001432
radius                         = 1
slope_parameter                = 0.14999999999999999
type                           = asteroid

[2867steins]
absolute_magnitude             = 12.6
albedo                         = 0.3
coord_func                     = comet_orbit
minor_planet_number            = 2867
name                           = Steins
orbit_ArgOfPericenter          = 250.96191
orbit_AscendingNode            = 55.34366
orbit_Eccentricity             = 0.1453125
orbit_Epoch                    = 2459600.5
orbit_Inclination              = 9.93023
orbit_MeanAnomaly              = 202.06411
orbit_MeanMotion               = 0.27111509
orbit_SemiMajorAxis            = 2.3642873
orbit_visualization_period     = 1327.3049880151268
radius                         = 11
rot_pole_de                    = -62
rot_pole_ra                    = 91
rot_pole_w0                    = 321.76
rot_pole_w1                    = 1428.09917
slope_parameter                = 0.14999999999999999
type                           = asteroid

[29pschwassmannwachmann]
absolute_magnitude             = 4
albedo                         = 0.1
coord_func                     = comet_orbit
dust_brightnessfactor          = 1.5
dust_lengthfactor              = 0.40000000000000002
dust_widthfactor               = 1.5
name                           = 29P/Schwassmann-Wachmann
orbit_ArgOfPericenter          = 50.8581
orbit_AscendingNode            = 312.3944
orbit_Eccentricity             = 0.044764
orbit_Epoch                    = 2459930.5
orbit_Inclination              = 9.3642
orbit_PericenterDistance       = 5.776229
orbit_TimeAtPericenter         = 2458592.5639
orbit_good                     = 1000
orbit_visualization_period     = 5389.287232495750
radius                         = 5
type                           = comet

[2I_Borisov]
absolute_magnitude             = 13.7
albedo                         = 0.1
coord_func                     = comet_orbit
dust_brightnessfactor          = 1.5
dust_lengthfactor              = 0.4
dust_widthfactor               = 1.5
name                           = 2I/Borisov [C/2019 Q4 (Borisov)]
orbit_ArgOfPericenter          = 210.6978
orbit_AscendingNode            = 307.5378
orbit_Eccentricity             = 3.079483
orbit_Epoch                    = 2458840.5
orbit_Inclination              = 44.678
orbit_PericenterDistance       = 1.940202
orbit_TimeAtPericenter         = 2458827.7323958334
orbit_good                     = 1000
radius                         = 10
slope_parameter                = 4.5
type                           = interstellar object

[2pallas]
absolute_magnitude             = 4.2
albedo                         = 0.101
color_index_bv                 = 0.635
coord_func                     = comet_orbit
minor_planet_number            = 2
name                           = Pallas
oblateness                     = 0.0
orbit_ArgOfPericenter          = 310.69724
orbit_AscendingNode            = 172.91658
orbit_Eccentricity             = 0.229993
orbit_Epoch                    = 2459600.5
orbit_Inclination              = 34.92531
orbit_MeanAnomaly              = 272.47992
orbit_MeanMotion               = 0.21366046
orbit_SemiMajorAxis            = 2.7711069
orbit_visualization_period     = 1686.537085119438
radius                         = 272.5
rot_pole_de                    = -3
rot_pole_ra                    = 33
rot_pole_w0                    = 38
rot_pole_w1                    = 1105.8036
slope_parameter                = 0.11
spec_b                         = B
spec_t                         = B
type                           = asteroid

[2pencke]
absolute_magnitude             = 14.1
albedo                         = 0.046
coord_func                     = comet_orbit
dust_brightnessfactor          = 1.5
dust_lengthfactor              = 0.40000000000000002
dust_widthfactor               = 1.5
name                           = 2P/Encke
orbit_ArgOfPericenter          = 187.2016
orbit_AscendingNode            = 334.118
orbit_Eccentricity             = 0.847334
orbit_Epoch                    = 2459930.5
orbit_Inclination              = 11.3705
orbit_PericenterDistance       = 0.338863
orbit_TimeAtPericenter         = 2460239.8853
orbit_good                     = 35
orbit_visualization_period     = 1203.941171884973
radius                         = 5
slope_parameter                = 6
type                           = comet

[3072612002ms4]
absolute_magnitude             = 3.7
albedo                         = 0.15
coord_func                     = comet_orbit
minor_planet_number            = 307261
name                           = 2002 MS4
orbit_ArgOfPericenter          = 215.04076000000001
orbit_AscendingNode            = 215.91234
orbit_Eccentricity             = 0.1419649
orbit_Epoch                    = 2457800.5
orbit_Inclination              = 17.669160000000002
orbit_MeanAnomaly              = 218.17359999999999
orbit_MeanMotion               = 0.00364445
orbit_SemiMajorAxis            = 41.819736200000001
orbit_visualization_period     = 98653.52761933634
radius                         = 625
type                           = cubewano

[3119992007ns2]
absolute_magnitude             = 18.100000000000001
albedo                         = 0.14999999999999999
coord_func                     = comet_orbit
minor_planet_number            = 311999
name                           = 2007 NS2
orbit_ArgOfPericenter          = 176.89688000000001
orbit_AscendingNode            = 282.48653000000002
orbit_Eccentricity             = 0.054075600000000001
orbit_Epoch                    = 2457600.5
orbit_Inclination              = 18.619800000000001
orbit_MeanAnomaly              = 134.33313000000001
orbit_MeanMotion               = 0.52402402000000003
orbit_SemiMajorAxis            = 1.5237086
radius                         = 1
type                           = asteroid

[3200phaethon]
absolute_magnitude             = 14.3
albedo                         = 0.1066
coord_func                     = comet_orbit
minor_planet_number            = 3200
name                           = Phaethon
orbit_ArgOfPericenter          = 322.17473
orbit_AscendingNode            = 265.22308
orbit_Eccentricity             = 0.8897708
orbit_Epoch                    = 2459600.5
orbit_Inclination              = 22.25529
orbit_MeanAnomaly              = 281.50125
orbit_MeanMotion               = 0.68751147
orbit_SemiMajorAxis            = 1.2714016
orbit_visualization_period     = 523.5184875226332
radius                         = 3.125
spec_b                         = B
spec_t                         = F
type                           = asteroid

[32pcomassola]
absolute_magnitude             = 6.5
albedo                         = 0.1
coord_func                     = comet_orbit
dust_brightnessfactor          = 1.5
dust_lengthfactor              = 0.40000000000000002
dust_widthfactor               = 1.5
name                           = 32P/Comas Sola
orbit_ArgOfPericenter          = 53.275799999999997
orbit_AscendingNode            = 57.821599999999997
orbit_Eccentricity             = 0.55575200000000002
orbit_Inclination              = 9.9708000000000006
orbit_PericenterDistance       = 2.000737
orbit_TimeAtPericenter         = 2456947.7156944443
orbit_good                     = 516
orbit_visualization_period     = 3491.319310301199
radius                         = 5
slope_parameter                = 8
type                           = comet

